spkid,full_name,pdes,h,orbit_id,epoch,epoch.mjd,epoch.cal,e,a,q,i,om,w,ma,ad,n,tp,tp_cal,per,per_y,moid,moid_ld,moid_jup,t_jup,sigma_e,sigma_a,sigma_q,sigma_i,sigma_om,sigma_w,sigma_ma,sigma_ad,sigma_n,sigma_tp,sigma_per,class,producer,data_arc,first_obs,last_obs,n_obs_used,condition_code,rms,orbit_id_cad,jd,cd,dist,dist_min,dist_max,v_rel,v_inf,t_sigma_f,h_cad
2037655, 37655 Illapa (1994 PM),37655,17.8100000000000000,JPL 120,2459600.5000000000000000,59600,2022-01-21.0,0.7522000000000000,1.4780000000000000,0.3660000000000000,18.0300000000000000,139.5500000000000000,303.8800000000000000,66.3600000000000000,2.5900000000000000,0.5486000000000000,2459479.5500000000000000,2021-09-22.0,656.0000000000000000,1.8000000000000000,0.0253000000000000,9.8300000000000000,2.8300000000000000,4.1900000000000000,0.0000000210000000,0.0000000210000000,0.0000000310000000,0.0000051000000000,0.0000056000000000,0.0000064000000000,0.0000056000000000,0.0000000071000000,0.0000000023000000,0.0000098000000000,0.0000027000000000,APO,Otto Matic,9863.0000000000000000,1994-08-01,2021-08-02,634,0,0.3704500000000000,120,2485018.161593386,2091-08-24 15:53:00.000000,0.1842636721273820,0.1842518241769260,0.1842755201010180,21.1462129426033000,21.1455291143254000,< 00:01,17.8100000000000000
2038239, 38239 (1999 OR3),38239,18.2000000000000000,JPL 36,2459600.5000000000000000,59600,2022-01-21.0,0.5756000000000000,2.0350000000000000,0.8640000000000000,9.4400000000000000,199.9500000000000000,28.0800000000000000,290.6200000000000000,3.2100000000000000,0.3394000000000000,2459804.9000000000000000,2022-08-13.4,1060.0000000000000000,2.9000000000000000,0.0552000000000000,21.5000000000000000,1.8000000000000000,3.5700000000000000,0.0000000700000000,0.0000000700000000,0.0000001500000000,0.0000095000000000,0.0000820000000000,0.0000780000000000,0.0000520000000000,0.0000000380000000,0.0000000060000000,0.0001600000000000,0.0000190000000000,APO,Otto Matic,7108.0000000000000000,1999-07-27,2019-01-11,183,0,0.6004200000000000,36,2483102.275663076,2086-05-26 18:37:00.000000,0.1884485683810090,0.1884480229756950,0.1884491138575380,12.0819035146969000,12.0807331931909000,00:04,18.2000000000000000
2039565, 39565 (1992 SL),39565,18.4300000000000000,JPL 98,2459600.5000000000000000,59600,2022-01-21.0,0.3344000000000000,1.6420000000000000,1.0930000000000000,8.6000000000000000,0.9600000000000000,344.7700000000000000,347.6000000000000000,2.1900000000000000,0.4685000000000000,2459626.9700000000000000,2022-02-16.5,768.0000000000000000,2.1000000000000000,0.0933000000000000,36.3000000000000000,3.2300000000000000,4.2200000000000000,0.0000000450000000,0.0000000450000000,0.0000000750000000,0.0000062000000000,0.0000240000000000,0.0000240000000000,0.0000067000000000,0.0000000019000000,0.0000000006100000,0.0000140000000000,0.0000010000000000,AMO,Otto Matic,25713.0000000000000000,1950-12-09,2021-05-03,380,0,0.5525300000000000,98,2471159.434200776,2053-09-13 22:25:00.000000,0.0931322517306621,0.0931320356609747,0.0931324678008895,5.7150885086217300,5.7100803321642200,< 00:01,18.4300000000000000
2039572, 39572 (1993 DQ1),39572,16.4600000000000000,JPL 162,2459600.5000000000000000,59600,2022-01-21.0,0.4922000000000000,2.0370000000000000,1.0350000000000000,10.0200000000000000,313.5500000000000000,344.8400000000000000,226.7300000000000000,3.0400000000000000,0.3390000000000000,2459993.6700000000000000,2023-02-18.2,1060.0000000000000000,2.9100000000000000,0.0303000000000000,11.8000000000000000,2.2200000000000000,3.6300000000000000,0.0000000400000000,0.0000000400000000,0.0000000790000000,0.0000048000000000,0.0000250000000000,0.0000250000000000,0.0000180000000000,0.0000000200000000,0.0000000033000000,0.0000570000000000,0.0000100000000000,AMO,Otto Matic,10211.0000000000000000,1993-02-26,2021-02-10,774,0,0.5570700000000000,163,2479132.407493920,2075-07-13 21:47:00.000000,0.0983246160536593,0.0983240188250706,0.0983252132846568,8.6545735550189000,8.6514418344285900,< 00:01,16.4600000000000000
2040267, 40267 (1999 GJ4),40267,15.5200000000000000,JPL 484,2459600.5000000000000000,59600,2022-01-21.0,0.8085000000000000,1.3390000000000000,0.2560000000000000,34.5000000000000000,148.2300000000000000,211.9300000000000000,120.2300000000000000,2.4200000000000000,0.6362000000000000,2459411.5200000000000000,2021-07-16.0,566.0000000000000000,1.5500000000000000,0.1560000000000000,60.9000000000000000,3.1700000000000000,4.3800000000000000,0.0000000140000000,0.0000000140000000,0.0000000190000000,0.0000023000000000,0.0000033000000000,0.0000025000000000,0.0000036000000000,0.0000000029000000,0.0000000011000000,0.0000054000000000,0.0000010000000000,APO,Otto Matic,24362.0000000000000000,1955-03-25,2021-12-05,2770,0,0.4542100000000000,486,2487743.091278353,2099-02-08 14:11:00.000000,0.1690846314571140,0.1690832552383700,0.1690860077160050,33.3342405075621000,33.3337677693193000,< 00:01,15.5200000000000000
2041429, 41429 (2000 GE2),41429,20.3800000000000000,JPL 77,2459600.5000000000000000,59600,2022-01-21.0,0.5553000000000000,1.5930000000000000,0.7080000000000000,2.1700000000000000,351.9300000000000000,297.2300000000000000,272.5200000000000000,2.4800000000000000,0.4902000000000000,2459778.9500000000000000,2022-07-18.4,734.0000000000000000,2.0100000000000000,0.0109000000000000,4.2200000000000000,2.7300000000000000,4.1900000000000000,0.0000000550000000,0.0000000550000000,0.0000000850000000,0.0000066000000000,0.0000670000000000,0.0000710000000000,0.0000260000000000,0.0000000130000000,0.0000000040000000,0.0000550000000000,0.0000060000000000,APO,Otto Matic,8267.0000000000000000,1998-03-25,2020-11-11,360,0,0.6403000000000000,77,2486707.545558880,2096-04-09 01:06:00.000000,0.1689103995963980,0.1688145573156150,0.1690062428609540,21.0678303350365000,21.0670815729033000,00:07,20.3800000000000000
2042286, 42286 (2001 TN41),42286,16.5200000000000000,JPL 200,2459600.5000000000000000,59600,2022-01-21.0,0.3918000000000000,1.4190000000000000,0.8630000000000000,24.0700000000000000,55.8400000000000000,150.8900000000000000,245.9100000000000000,1.9800000000000000,0.5828000000000000,2459796.2600000000000000,2022-08-04.8,618.0000000000000000,1.6900000000000000,0.1090000000000000,42.6000000000000000,3.0300000000000000,4.5400000000000000,0.0000000610000000,0.0000000610000000,0.0000000860000000,0.0000070000000000,0.0000100000000000,0.0000130000000000,0.0000150000000000,0.0000000044000000,0.0000000020000000,0.0000250000000000,0.0000021000000000,APO,Otto Matic,16918.0000000000000000,1975-09-09,2022-01-03,834,0,0.5203300000000000,201,2486380.880088018,2095-05-18 09:07:00.000000,0.1160477984245780,0.1160469726607640,0.1160486243108510,15.8313784224625000,15.8299280597865000,< 00:01,16.5200000000000000
2048603, 48603 (1995 BC2),48603,17.5500000000000000,JPL 109,2459600.5000000000000000,59600,2022-01-21.0,0.4296000000000000,1.9180000000000000,1.0940000000000000,5.0300000000000000,328.2500000000000000,81.7700000000000000,91.7600000000000000,2.7400000000000000,0.3710000000000000,2459353.1700000000000000,2021-05-18.7,970.0000000000000000,2.6600000000000000,0.1380000000000000,53.6000000000000000,2.6900000000000000,3.8100000000000000,0.0000000440000000,0.0000000440000000,0.0000000850000000,0.0000070000000000,0.0000440000000000,0.0000460000000000,0.0000150000000000,0.0000000056000000,0.0000000011000000,0.0000400000000000,0.0000029000000000,AMO,Otto Matic,11919.0000000000000000,1986-09-10,2019-04-29,499,0,0.6100000000000000,109,2477788.274510907,2071-11-07 18:35:00.000000,0.1366765387443240,0.1366761806290590,0.1366768968607530,4.1054766392059800,4.1007254078892100,< 00:01,17.5500000000000000
2052340, 52340 (1992 SY),52340,17.8000000000000000,JPL 89,2459600.5000000000000000,59600,2022-01-21.0,0.5474000000000000,2.2130000000000000,1.0020000000000000,8.0800000000000000,5.2600000000000000,116.2900000000000000,279.4400000000000000,3.4300000000000000,0.2993000000000000,2459869.6400000000000000,2022-10-17.1,1200.0000000000000000,3.2900000000000000,0.1010000000000000,39.2000000000000000,1.7400000000000000,3.4300000000000000,0.0000000160000000,0.0000000160000000,0.0000000370000000,0.0000056000000000,0.0000200000000000,0.0000230000000000,0.0000100000000000,0.0000000100000000,0.0000000013000000,0.0000360000000000,0.0000053000000000,APO,Otto Matic,13230.0000000000000000,1980-03-19,2016-06-08,672,0,0.5505900000000000,89,2461098.641063395,2026-02-27 03:23:00.000000,0.1225732960892240,0.1225722035069460,0.1225743886850460,10.8033333068014000,10.8013209769643000,< 00:01,17.8000000000000000
2052381, 52381 (1993 HA),52381,20.0700000000000000,JPL 104,2459600.5000000000000000,59600,2022-01-21.0,0.1441000000000000,1.2780000000000000,1.0940000000000000,7.7300000000000000,183.2600000000000000,263.9100000000000000,77.1900000000000000,1.4600000000000000,0.6820000000000000,2459487.3200000000000000,2021-09-29.8,528.0000000000000000,1.4500000000000000,0.1690000000000000,65.7000000000000000,3.6800000000000000,5.0400000000000000,0.0000000260000000,0.0000000260000000,0.0000000330000000,0.0000031000000000,0.0000170000000000,0.0000200000000000,0.0000089000000000,0.0000000016000000,0.0000000011000000,0.0000130000000000,0.0000008500000000,AMO,Otto Matic,9540.0000000000000000,1993-04-17,2019-05-31,383,0,0.4720300000000000,104,2476308.610426477,2067-10-20 02:39:00.000000,0.1979138502410490,0.1979131530703050,0.1979145474539010,4.1326577505906600,4.1293987983076800,< 00:01,20.0700000000000000
